IRIDIUM 166             
1 43570U 18061B   23247.76771597  .00000289  00000+0  96018-4 0  9998
2 43570  86.3961 121.5672 0002211  80.1967 279.9479 14.34220025267718
IRIDIUM 158             
1 43571U 18061C   23248.08484002  .00000304  00000+0  10135-3 0  9990
2 43571  86.3961 121.4436 0001901  77.3270 282.8138 14.34220096267731
IRIDIUM 165             
1 43572U 18061D   23248.17997343  .00000274  00000+0  90771-4 0  9999
2 43572  86.3962 121.4310 0001852  75.7333 284.4068 14.34221750267762
IRIDIUM 155             
1 43573U 18061E   23247.65354856  .00000405  00000+0  13754-3 0  9999
2 43573  86.3961 121.5700 0002404  85.9325 274.2146 14.34214526267660
IRIDIUM 154             
1 43574U 18061F   23248.05312976  .00000038  00000+0  66525-5 0  9990
2 43574  86.3963 121.4869 0001897  90.6652 269.4761 14.34217264267761
IRIDIUM 163             
1 43575U 18061G   23247.40618554  .00000330  00000+0  11070-3 0  9998
2 43575  86.3960 121.7044 0002061  85.5400 274.6031 14.34219417267642
IRIDIUM 156             
1 43576U 18061H   23247.79942549  .00000302  00000+0  10064-3 0  9996
2 43576  86.3960 121.5459 0002251  78.6512 281.4937 14.34219643267685
IRIDIUM 164             
1 43577U 18061J   23247.36178961  .00000291  00000+0  96775-4 0  9990
2 43577  86.3964 121.7535 0002025  79.5159 280.6265 14.34216993267672
